{
    "links": {
        "self": "http://www.neowsapp.com/rest/v1/neo/3763479?api_key=iIulBulltgU6a56xZRHN4H3l9WmuAYTsLGpBGhQ2"
    },
    "id": "3763479",
    "neo_reference_id": "3763479",
    "name": "(2016 VM3)",
    "designation": "2016 VM3",
    "nasa_jpl_url": "http://ssd.jpl.nasa.gov/sbdb.cgi?sstr=3763479",
    "absolute_magnitude_h": 24.8,
    "estimated_diameter": {
        "kilometers": {
            "estimated_diameter_min": 0.0291443905,
            "estimated_diameter_max": 0.0651688382
        },
        "meters": {
            "estimated_diameter_min": 29.1443904535,
            "estimated_diameter_max": 65.1688382168
        },
        "miles": {
            "estimated_diameter_min": 0.018109479,
            "estimated_diameter_max": 0.0404940262
        },
        "feet": {
            "estimated_diameter_min": 95.6180819754,
            "estimated_diameter_max": 213.8085311752
        }
    },
    "is_potentially_hazardous_asteroid": false,
    "close_approach_data": [
        {
            "close_approach_date": "2016-11-02",
            "close_approach_date_full": "2016-Nov-02 11:12",
            "epoch_date_close_approach": 1478085120000,
            "relative_velocity": {
                "kilometers_per_second": "8.2244763355",
                "kilometers_per_hour": "29608.114807825",
                "miles_per_hour": "18397.3311148955"
            },
            "miss_distance": {
                "astronomical": "0.0285089705",
                "lunar": "11.0899895245",
                "kilometers": "4264881.262692835",
                "miles": "2650074.331057723"
            },
            "orbiting_body": "Earth"
        },
        {
            "close_approach_date": "2089-11-03",
            "close_approach_date_full": "2089-Nov-03 23:05",
            "epoch_date_close_approach": 3781897500000,
            "relative_velocity": {
                "kilometers_per_second": "8.2861353298",
                "kilometers_per_hour": "29830.0871874",
                "miles_per_hour": "18535.2561193042"
            },
            "miss_distance": {
                "astronomical": "0.0265074906",
                "lunar": "10.3114138434",
                "kilometers": "3965464.132805022",
                "miles": "2464025.1537604236"
            },
            "orbiting_body": "Earth"
        },
        {
            "close_approach_date": "2128-09-20",
            "close_approach_date_full": "2128-Sep-20 12:12",
            "epoch_date_close_approach": 5008738320000,
            "relative_velocity": {
                "kilometers_per_second": "14.6252773558",
                "kilometers_per_hour": "52650.998480777",
                "miles_per_hour": "32715.282917125"
            },
            "miss_distance": {
                "astronomical": "0.4029148377",
                "lunar": "156.7338718653",
                "kilometers": "60275201.511315699",
                "miles": "37453273.4877626862"
            },
            "orbiting_body": "Earth"
        },
        {
            "close_approach_date": "2136-11-24",
            "close_approach_date_full": "2136-Nov-24 02:56",
            "epoch_date_close_approach": 5266781760000,
            "relative_velocity": {
                "kilometers_per_second": "12.6345073937",
                "kilometers_per_hour": "45484.2266174028",
                "miles_per_hour": "28262.129589019"
            },
            "miss_distance": {
                "astronomical": "0.2586695673",
                "lunar": "100.6224616797",
                "kilometers": "38696416.301901651",
                "miles": "24044838.1160427438"
            },
            "orbiting_body": "Earth"
        },
        {
            "close_approach_date": "2149-11-11",
            "close_approach_date_full": "2149-Nov-11 22:55",
            "epoch_date_close_approach": 5675957700000,
            "relative_velocity": {
                "kilometers_per_second": "9.1104855451",
                "kilometers_per_hour": "32797.7479625256",
                "miles_per_hour": "20379.2451159371"
            },
            "miss_distance": {
                "astronomical": "0.0856213928",
                "lunar": "33.3067217992",
                "kilometers": "12808777.989313336",
                "miles": "7959005.5785665968"
            },
            "orbiting_body": "Earth"
        }
    ],
    "orbital_data": {
        "orbit_id": "6",
        "orbit_determination_date": "2018-02-10 07:08:30",
        "first_observation_date": "2016-11-07",
        "last_observation_date": "2016-12-01",
        "data_arc_in_days": 24,
        "observations_used": 38,
        "orbit_uncertainty": "7",
        "minimum_orbit_intersection": ".0276949",
        "jupiter_tisserand_invariant": "4.732",
        "epoch_osculation": "2459000.5",
        "eccentricity": ".2648989614458135",
        "semi_major_axis": "1.38142895262434",
        "inclination": "13.6324000028314",
        "ascending_node_longitude": "222.4231700896329",
        "orbital_period": "593.0499282972131",
        "perihelion_distance": "1.015489857762975",
        "perihelion_argument": "169.0907040081091",
        "aphelion_distance": "1.747368047485706",
        "perihelion_time": "2458872.573642458731",
        "mean_anomaly": "77.65533139357669",
        "mean_motion": ".6070315209946072",
        "equinox": "J2000",
        "orbit_class": {
            "orbit_class_type": "APO",
            "orbit_class_description": "Near-Earth asteroid orbits which cross the Earth’s orbit similar to that of 1862 Apollo",
            "orbit_class_range": "a (semi-major axis) > 1.0 AU; q (perihelion) < 1.017 AU"
        }
    },
    "is_sentry_object": false
}